#dP2024  9 19  0  0  0.00000000      96 __u+U IGS20 EXT  IAC
## 2332 345600.00000000   900.00000000 60572 0.0000000000000
+   54   G01G02G03G04G05G06G07G08G09G10G11G12G13G14G15G16G17
+        G18G19G20G21G22G23G24G25G26G27G28G29G30G31G32R01R02
+        R03R04R05R07R08R09R11R12R14R15R16R17R18R19R20R21R22
+        R24R25R26  0  0  0  0  0  0  0  0  0  0  0  0  0  0
+          0  0  0  0  0  0  0  0  0  0  0  0  0  0  0  0  0
++         0  9  8  7  9  7  7  7  7  8 10  7  7  7  9  8  6
++         9 10  9  8  7  8  7  7  7  7 11  8  8  8  8 10 10
++         9  9  7  8  8  7  8  8  8  8  8  7  8  9  9  9  7
++         7  8  7  0  0  0  0  0  0  0  0  0  0  0  0  0  0
++         0  0  0  0  0  0  0  0  0  0  0  0  0  0  0  0  0
%c M  cc GPS ccc cccc cccc cccc cccc ccccc ccccc ccccc ccccc
%c cc cc ccc ccc cccc cccc cccc cccc ccccc ccccc ccccc ccccc
%f  0.0000000  0.000000000  0.00000000000  0.000000000000000
%f  0.0000000  0.000000000  0.00000000000  0.000000000000000
%i    0    0    0    0      0      0      0      0         0
%i    0    0    0    0      0      0      0      0         0
/* IAC                                ULTRA-RAPID PREDICTION
/* S/V CLOCKS ARE ALIGNED TO GNSS TIME                      
/* G:C1WC2W R:C1PC2P E:C1XC5X C:C2IC6I J:C1CC2S             
/* PCV:IGS20_2317 OL/AL:FES2004  NONE     YN ORB:CoN CLK:CoN
*  2024 09 19  1  0  0.00000000
PG01  20374.846549   2812.701830  16605.410354    193.810300
PG02   2625.680097 -16279.132636 -20274.974619   -355.153698
PG03  -9527.246004 -20857.238014 -13665.860273    542.485478
PG04   -406.602259 -24828.591699   9234.479194    446.249826
PG05  -5541.869204  14344.423581  21464.121782   -187.048965
PG06 -25759.184613   4688.469041  -4728.639811     21.315966
PG07 -15978.672584  -9537.976278  19640.886937    -36.262093
PG08   6203.836814 -25453.415252   2442.844524    357.150302
PG09  -8803.651437 -18217.620254  17081.196337    362.391748
PG10  21707.890257   7717.113879 -13296.256499   -129.805855
PG11 -21202.734157  12728.325724   9632.301466   -736.068506
PG12   4835.029582  20939.015668 -15916.598433   -539.065252
PG13 -13684.237951  20969.405901   8262.834347    677.211688
PG14 -22167.789978 -10806.166916 -10110.230981    498.688711
PG15  -2565.464689  26258.289312   1607.385129    205.885445
PG16  11024.310347 -10248.979697  21543.073104   -177.325656
PG17 -14925.698709  -1658.081287 -21497.951176    622.653315
PG18  16400.750755   8577.636782  19157.044112   -654.107840
PG19 -16496.674529   6736.034347 -19708.751833    539.845576
PG20 -15306.595539   7503.972501  20397.982668    370.500637
PG21   8205.048944 -17047.575724 -17770.184011    101.483164
PG22 -19873.981143  -4440.692575 -16479.088788    -63.198012
PG23  20925.386810  16485.549086  -1480.717215    323.215479
PG24  -4014.565498  17679.803814 -19727.653351   -486.558021
PG25  16063.693577  20321.640577  -6803.341943    499.627500
PG26  19975.058341  -1210.478256  17480.669076     75.774836
PG27  12555.651601 -19657.197909  12003.207398    -33.881120
PG28  25308.775059  -3905.007956  -7068.531103   -416.174791
PG29   5212.606859  20658.548356  15737.763538   -576.954514
PG30 -23535.668583  -2026.448250  12550.164214   -318.696328
PG31  24028.472098 -10717.127673   4691.106670   -224.527215
PG32  15252.998867    129.572239 -21513.576138   -595.812018
PR01    -48.558452  23733.621628   9331.953579     98.247428
PR02   7033.642433  23312.290847  -7681.403014    -24.724726
PR03  11335.288823   9607.147013 -20711.925500    107.816426
PR04   9053.772107  -8772.988978 -22148.567036    255.340946
PR05   2223.570263 -22533.205041 -11713.890098    137.858072
PR07 -11366.849251  -8892.047999  21051.733928     91.176073
PR08  -9031.443840   9169.513214  22083.772894     -6.409293
PR09 -15082.282789 -13422.676702  15665.214240    209.907138
PR11 -20572.759912     -1.531597 -15080.647690     11.486498
PR12  -3435.791732  10478.335569 -22973.626282     45.008826
PR14  23980.767622   8655.750280    317.871205     26.940390
PR15  19549.133757  -1022.103253  16371.391576     75.740859
PR16   3526.952397 -10301.660768  23080.397135     29.242586
PR17  16582.923733  -1904.403918  19319.993148    123.225379
PR18  21107.243555 -12980.490006   5990.967911    162.724568
PR19  16724.954340 -17101.536138  -8877.432190   -291.868705
PR20  -1141.990025 -11668.135061 -22638.567120   -119.288789
PR21 -16068.805137   1194.795240 -19756.828329   -135.635060
PR22 -21386.355745  13085.154776  -4680.199117     43.514997
PR24   2475.243641  11668.445536  22563.808626    -72.585913
PR25 -16958.709934   1316.185126 -18989.389877    -99.208828
PR26  -9430.316986   7531.327511  22484.401974     32.480798
*  2024 09 19  1 15  0.00000000
PG01  21647.973909   4155.950231  14671.935250    193.801636
PG02   4813.681780 -17157.907069 -19113.535212   -355.146487
PG03  -8185.456500 -19883.645625 -15831.413676    542.497330
PG04     13.348529 -25664.056711   6556.270375    446.256178
PG05  -7558.021702  12845.559024  21798.758897   -187.050022
PG06 -25144.410041   4309.397644  -7521.807187     21.292312
PG07 -13939.791686 -10362.486696  20734.443194    -36.258124
PG08   6450.020106 -24954.844720   5258.382981    357.161814
PG09  -8346.740696 -20033.532589  15176.469816    362.406267
PG10  22687.909704   8725.327929 -10883.503887   -129.817064
PG11 -22174.416204  12794.162987   6977.541335   -736.072146
PG12   3379.416407  19745.233425 -17741.424513   -539.067739
PG13 -13541.867432  19827.357530  10861.408461    677.213486
PG14 -22756.623860 -11669.145941  -7547.335952    498.696379
PG15  -2896.870691  25849.025610   4394.943646    205.889442
PG16  12810.308855  -8461.765335  21372.831709   -177.316581
PG17 -14327.330791  -4139.390225 -21554.006571    622.642934
PG18  14299.209983   9383.432275  20403.744191   -654.109720
PG19 -15963.005146   4499.525714 -20801.965422    539.849963
PG20 -17210.962292   6280.669233  19243.951283    370.500284
PG21  10145.730404 -17715.573494 -15973.523598    101.482491
PG22 -21031.358883  -5899.143323 -14488.580289    -63.201367
PG23  20818.278304  16632.506545   1400.972709    323.223012
PG24  -5996.571285  18448.310813 -18412.235262   -486.557674
PG25  15226.402197  19955.044445  -9417.165393    499.627509
PG26  21433.843236     60.345550  15758.282890     75.767065
PG27  12530.687536 -18076.586509  14283.652399    -33.881212
PG28  24505.031343  -3334.310612  -9705.366349   -416.187195
PG29   4618.648992  22249.162503  13606.131782   -576.952299
PG30 -22173.598622  -2767.618606  14704.405257   -318.689909
PG31  24483.748846 -10615.587702   1902.407923   -224.526801
PG32  14857.474607   2614.478617 -21648.230383   -595.808685
PR01   -209.432056  22408.904021  12171.508688     98.248602
PR02   7335.610260  24030.792812  -4578.407107    -24.724809
PR03  11880.635786  12011.412283 -19096.947873    107.817055
PR04   9509.985907  -6025.133522 -22864.652768    255.342597
PR05   2360.271690 -20919.343298 -14378.716192    137.858651
PR07 -11908.376219 -11332.090389  19517.612590     91.176807
PR08  -9506.390852   6451.920111  22831.340995     -6.409279
PR09 -13136.314925 -12750.951716  17825.484185    209.909084
PR11 -22226.475491   -430.090230 -12513.045200     11.485676
PR12  -6117.924441   9571.205874 -22810.433044     45.009206
PR14  23865.412135   8495.590580  -2876.302522     26.940511
PR15  21348.250670   -510.728072  13967.829954     75.740627
PR16   6215.216886  -9404.898768  22891.940349     29.243004
PR17  14633.349491   -367.474034  20915.923405    123.228444
PR18  20271.282833 -12534.343581   9056.633366    162.726312
PR19  17311.360579 -17824.717267  -5799.162976   -291.869883
PR20    982.706412 -13401.674764 -21663.456053   -119.289314
PR21 -14065.895491   -363.346920 -21262.628343   -135.637910
PR22 -20692.597976  12717.075677  -7772.459003     43.506566
PR24    431.076364  13471.371284  21670.443174    -72.587327
PR25 -14993.295866   -142.870691 -20619.728605    -99.206404
PR26  -9944.846568   4773.975403  23012.797476     32.495113
EOF
